ALOS-4 (DAICHI-4)       
1 60182U 24123A   24272.87833268  .00005342  00000+0  72157-3 0  9999
2 60182  97.9215   8.0442 0001364  94.0402 266.0966 14.79478395 13278
